STARLINK-3156           
1 49458U 21104BC  24127.32827880  .00012589  00000+0  80695-3 0  9997
2 49458  53.2188 357.4690 0001409  82.3983 277.7169 15.08872070138357
STARLINK-3141           
1 49459U 21104BD  24126.91979660  .00002789  00000+0  19320-3 0  9994
2 49459  53.2179 359.3019 0001282  94.4421 265.6718 15.08844824137210
STARLINK-3140           
1 49460U 21104BE  24126.91611994  .00003150  00000+0  21591-3 0  9995
2 49460  53.2167 359.3166 0001012  92.2020 267.9088 15.08842586137201
STARLINK-3219           
1 49724U 21115A   24127.44882819  .00006667  00000+0  43650-3 0  9991
2 49724  53.2166 287.1487 0001806  92.2886 267.8313 15.08847778135158
STARLINK-3218           
1 49725U 21115B   24127.40465381  .00002134  00000+0  15211-3 0  9996
2 49725  53.2169 287.2309 0001283  95.1887 264.9252 15.08836813135156
STARLINK-3237           
1 49726U 21115C   24127.18150793  .00099725  00000+0  36264-2 0  9992
2 49726  53.1964 288.5427 0004362 271.3043  88.7457 15.27452198135113
STARLINK-3242           
1 49727U 21115D   24126.69715722  .00002498  00000+0  17499-3 0  9998
2 49727  53.2171 300.3020 0001577 102.6674 257.4494 15.08843739134915
STARLINK-3240           
1 49728U 21115E   24127.49572121  .00000518  00000+0  50614-4 0  9990
2 49728  53.2173 296.7165 0001224  94.1122 266.0010 15.08837546135020
STARLINK-3251           
1 49729U 21115F   24127.48834644  .00004985  00000+0  33104-3 0  9997
2 49729  53.2166 296.6332 0001226  88.7763 271.3370 15.08845906135027
STARLINK-3249           
1 49730U 21115G   24126.79654384  .00000908  00000+0  75132-4 0  9992
2 49730  53.2190 300.0500 0001206  85.3523 274.7607 15.08842355133807
STARLINK-3246           
1 49732U 21115J   24126.80389580  .00001288  00000+0  98988-4 0  9995
2 49732  53.2182 299.9758 0001174  80.9787 279.1338 15.08848323133809
STARLINK-3252           
1 49733U 21115K   24127.17924110  .00001212  00000+0  94226-4 0  9999
2 49733  53.2186 298.1386 0001276  92.8795 267.2343 15.08839842134975
STARLINK-3238           
1 49734U 21115L   24127.46352121  .00003326  00000+0  22690-3 0  9992
2 49734  53.2170 286.8856 0001319  91.8906 268.2237 15.08849907135164
STARLINK-3113           
1 49735U 21115M   24127.17186050  .00005553  00000+0  36652-3 0  9994
2 49735  53.2182 298.0551 0001400  97.4709 262.6442 15.08857139134979
STARLINK-3148           
1 49736U 21115N   24126.73117759  .00000376  00000+0  41695-4 0  9998
2 49736  53.2180 290.0339 0001098  81.8854 278.2263 15.08854666133947
STARLINK-3225           
1 49737U 21115P   24127.13600033  .00001361  00000+0  10360-3 0  9995
2 49737  53.2187 288.3332 0001423  97.5347 262.5807 15.08835835135119
STARLINK-3143           
1 49738U 21115Q   24126.76530647  .00000518  00000+0  50632-4 0  9997
2 49738  53.2179 290.1977 0001207  92.5948 267.5182 15.08840459133947
STARLINK-3155           
1 49739U 21115R   24126.85908354  .00000763  00000+0  66005-4 0  9995
2 49739  53.2188 299.5747 0001417  90.3665 269.7489 15.08838885133811
STARLINK-3226           
1 49740U 21115S   24126.88670900  .00000916  00000+0  75612-4 0  9997
2 49740  53.2175 289.4219 0001197  97.8603 262.2525 15.08848119133966
STARLINK-3244           
1 49741U 21115T   24127.14799895  .00003178  00000+0  21763-3 0  9993
2 49741  53.2181 288.2883 0000854  78.7191 281.3897 15.08842900135112
STARLINK-3202           
1 49742U 21115U   24126.76432218  .00000517  00000+0  50534-4 0  9997
2 49742  53.2189 290.0000 0001162  97.7070 262.4054 15.08843243133948
STARLINK-3239           
1 49743U 21115V   24127.14429848  .00000757  00000+0  65595-4 0  9995
2 49743  53.2192 288.2305 0001209  95.2229 264.8901 15.08851960135114
STARLINK-3231           
1 49744U 21115W   24127.42398821  .00002476  00000+0  17363-3 0  9992
2 49744  53.2187 286.9348 0001334  91.0206 269.0939 15.08835201135151
STARLINK-3241           
1 49745U 21115X   24126.75791199  .00004946  00000+0  32856-3 0  9991
2 49745  53.2167 290.0027 0001216 104.8234 255.2893 15.08844430133948
STARLINK-3233           
1 49746U 21115Y   24126.77904617  .00005148  00000+0  34119-3 0  9994
2 49746  53.2166 289.9345 0001448  84.3150 275.8008 15.08849338133942
STARLINK-3247           
1 49747U 21115Z   24127.16543960  .00000985  00000+0  79943-4 0  9998
2 49747  53.2184 288.1995 0001239  92.2828 267.8306 15.08846234135118
STARLINK-3248           
1 49748U 21115AA  24126.67962728  .00003248  00000+0  22202-3 0  9991
2 49748  53.2172 289.9563 0001193  97.5688 262.5440 15.08844227133947
STARLINK-3250           
1 49749U 21115AB  24127.46082866  .00000759  00000+0  65753-4 0  9999
2 49749  53.2173 287.1148 0001100  94.3434 265.7684 15.08839954135151
STARLINK-3236           
1 49750U 21115AC  24126.72847906  .00002136  00000+0  15222-3 0  9999
2 49750  53.2189 290.1720 0001369  97.9920 262.1227 15.08844438133948
STARLINK-3229           
1 49751U 21115AD  24126.77535134  .00001703  00000+0  12504-3 0  9991
2 49751  53.2193 289.8746 0000949  87.2946 272.8154 15.08844420133959
STARLINK-3209           
1 49752U 21115AE  24127.14155939  .00004723  00000+0  31455-3 0  9996
2 49752  53.2172 278.3188 0001296  78.5704 281.5434 15.08853229135251
STARLINK-3200           
1 49753U 21115AF  24126.65759621  .00002891  00000+0  19959-3 0  9999
2 49753  53.2168 290.4793 0001285  81.6558 278.4580 15.08853011133933
STARLINK-3193           
1 49754U 21115AG  24127.40925347  .00004542  00000+0  30325-3 0  9999
2 49754  53.2171 277.2119 0001211  78.8974 281.2154 15.08842261135297
STARLINK-3210           
1 49755U 21115AH  24127.46448308  .00002722  00000+0  18902-3 0  9998
2 49755  53.2168 286.9036 0001399 100.8085 259.3064 15.08842937135167
STARLINK-3207           
1 49756U 21115AJ  24127.54905844 -.00006891  00000+0 -41479-3 0  9999
2 49756  53.2174 276.4759 0001083  79.7185 280.3929 15.08881306135310
STARLINK-3197           
1 49757U 21115AK  24127.14524152 -.00000132  00000+0  98027-5 0  9999
2 49757  53.2186 278.3006 0000891 107.7059 252.4031 15.08844709135251
STARLINK-3194           
1 49758U 21115AL  24127.55644174  .00004860  00000+0  32320-3 0  9995
2 49758  53.2173 276.4465 0001458  68.3151 291.7997 15.08843114135314
STARLINK-3204           
1 49759U 21115AM  24127.41292647  .00001034  00000+0  83040-4 0  9991
2 49759  53.2191 277.0890 0001225  84.6198 275.4934 15.08828832135295
STARLINK-3199           
1 49760U 21115AN  24127.56380577  .00003551  00000+0  24106-3 0  9992
2 49760  53.2178 276.4106 0001264 107.1078 253.0053 15.08839380135324
STARLINK-3203           
1 49761U 21115AP  24127.15532399  .00007163  00000+0  46763-3 0  9995
2 49761  53.2165 278.2473 0001140  72.6587 287.4530 15.08844816135255
STARLINK-3195           
1 49762U 21115AQ  24127.43868258  .00006172  00000+0  40556-3 0  9996
2 49762  53.2169 276.9731 0001291 101.0272 259.0866 15.08837449135304
STARLINK-3198           
1 49763U 21115AR  24127.56012857  .00005710  00000+0  37675-3 0  9992
2 49763  53.2185 276.4282 0001229 107.7892 252.3234 15.08819387135329
STARLINK-3206           
1 49764U 21115AS  24127.44604676  .00000759  00000+0  65758-4 0  9998
2 49764  53.2172 276.9411 0001080  83.8013 276.3102 15.08829368135307
STARLINK-3227           
1 49765U 21115AT  24127.43595989  .00001014  00000+0  81811-4 0  9997
2 49765  53.2178 276.9909 0001218 125.3448 234.7658 15.08838551135301
STARLINK-3190           
1 49766U 21115AU  24126.65580433  .00004204  00000+0  28207-3 0  9992
2 49766  53.2170 280.4986 0001463  96.0439 264.0720 15.08843819134077
STARLINK-3192           
1 49767U 21115AV  24127.44235887  .00001293  00000+0  99324-4 0  9995
2 49767  53.2180 276.9564 0001754  85.6192 274.5001 15.08844829135301
STARLINK-3196           
1 49768U 21115AW  24126.66220169  .00002116  00000+0  15097-3 0  9995
2 49768  53.2171 280.4611 0001088  94.1511 265.9606 15.08843201134076
STARLINK-3208           
1 49769U 21115AX  24127.39180538  .00008115  00000+0  52729-3 0  9990
2 49769  53.2162 277.2347 0001074  99.5985 260.5128 15.08844076135292
STARLINK-3191           
1 49770U 21115AY  24127.39916339  .00002356  00000+0  16601-3 0  9998
2 49770  53.2192 277.2000 0001390  95.4313 264.6837 15.08847416135297
STARLINK-3201           
1 49771U 21115AZ  24127.39820077  .00010139  00000+0  65398-3 0  9997
2 49771  53.2159 277.1554 0001217  79.8105 280.3025 15.08852986135299
STARLINK-3317           
1 50156U 21125A   24127.41479190  .00009371  00000+0  60564-3 0  9992
2 50156  53.2189  27.0814 0001375 109.8801 250.2340 15.08866195134634
STARLINK-3313           
1 50157U 21125B   24127.43867994  .00000830  00000+0  70233-4 0  9994
2 50157  53.2177  36.9721 0001485  73.1124 287.0030 15.08844704131881
STARLINK-3309           
1 50158U 21125C   24126.89868525  .00018055  00000+0  11487-2 0  9997
2 50158  53.2176  39.4068 0001461  79.6552 280.4605 15.08868276131800
STARLINK-3297           
1 50159U 21125D   24127.15995486  .00006410  00000+0  42025-3 0  9990
2 50159  53.2178  38.2340 0001558 101.9752 258.1415 15.08858296131386
STARLINK-3288           
1 50160U 21125E   24127.16635122  .00003583  00000+0  24300-3 0  9995
2 50160  53.2191  38.1952 0001417 100.6342 259.4809 15.08850874134441
STARLINK-3304           
1 50161U 21125F   24127.17003702  .00003137  00000+0  21507-3 0  9991
2 50161  53.2184  38.1775 0001410 100.3437 259.7714 15.08848285134443
STARLINK-3306           
1 50163U 21125H   24127.08724693  .00015279  00000+0  97536-3 0  9997
2 50163  53.2182  18.5401 0001281  82.2300 277.8838 15.08864419134719
STARLINK-3298           
1 50165U 21125K   24127.48651657  .00019346  00000+0  12287-2 0  9990
2 50165  53.2174  36.7589 0001230  80.9164 279.1967 15.08887288131891
STARLINK-3305           
1 50166U 21125L   24127.10566239  .00000529  00000+0  51275-4 0  9996
2 50166  53.2185  28.4003 0000943  88.3341 271.7759 15.08854308131975
